,Zip,ID,Name,Category,Lat,Long
0,19112,59666a2164c8e166fd70c996,Bar Amis,Italian Restaurant,39.89662491763111,-75.17551254494923
1,19112,5812976e38fabbd0109df490,Shake Shack,Burger Joint,39.90125,-75.171985
2,19112,5126439be8895a09e35c4290,Tony Luke's,Sandwich Place,39.90130858574735,-75.17201900482178
3,19112,4bc209d874a9a5933f9cd2f6,Chickie's & Pete's,Fast Food Restaurant,39.90119580515075,-75.17185748757643
4,19112,4b5c5724f964a520a02b29e3,Cadillac Grille,Restaurant,39.90172528909823,-75.17212480404326
5,19112,555dd4bd498e7ac834ebbef9,Mercer Cafe at The Navy Yard,Pizza Place,39.89017935015437,-75.1772538387765
6,19112,4bc4fa5be58e95216447c9e1,CURE Insurance Club,Restaurant,39.901341878934595,-75.17100487506127
7,19112,4b12d462f964a520fe8e23e3,Chickie's & Pete's,Fast Food Restaurant,39.90071597768347,-75.16751289367676
8,19112,5125af9e39507c01fc10be78,Tony Luke's,Sandwich Place,39.900995821018974,-75.16727685928345
9,19112,4f752e63e4b0b8451ccc664b,Chickie's & Pete's,Snack Place,39.90431510051693,-75.16936107141642
10,19112,5ca15f45e1f0aa002cefb5cc,Shake Shack,Burger Joint,39.904797,-75.167145
11,19112,4c3c93e57d002d7f5e9bae18,Tastycake Factory,Bakery,39.89879780906343,-75.19496756317179
12,19112,51562457e4b0fa0f8170b23e,Federal Donuts,Donut Shop,39.906360125016064,-75.16770498124629
13,19112,4bcf83beb221c9b63935d2d0,Bull's BBQ,BBQ Joint,39.90678544847841,-75.16770057933881
14,19112,4bf95a388d30d13aac080218,Harry the K's Broadcast Bar & Grille,American Restaurant,39.90647722766655,-75.16704082489014
15,19112,4e19d464fa761946459e458d,Tony Luke's,Sandwich Place,39.9068984842772,-75.16661722751272
16,19112,4bf303f2c440c9b631740104,Campo's,Sandwich Place,39.906756056655716,-75.16596918678889
17,19112,5a22dc6e06fb60470b5f4ef7,Dunkin',Donut Shop,39.910216999999996,-75.186947
18,19112,4b92996af964a520710834e3,Termini Bros,Bakery,39.911408729162325,-75.1753421141613
19,19112,4e73830cb993272e5231bc0b,Pastificio,Deli / Bodega,39.911403961878875,-75.17500198221143
20,19112,4adb9f66f964a5207a2921e3,Celebre's,Pizza Place,39.91160681403437,-75.17521149640358
21,19112,4bbe86f0ba9776b09de9fdc8,Popi's Restaurant,Italian Restaurant,39.91167832805587,-75.18256780489956
22,19112,4a90dacff964a5209f1920e3,Penrose Diner,Diner,39.912320306606055,-75.18299451040096
23,19112,4b01e73cf964a520664622e3,Talk Of The Town,Sandwich Place,39.912665302241344,-75.17276604953547
24,19112,4c784d5f3badb1f75d684b54,Samuels & Sons Seafood Co.,Seafood Restaurant,39.90412669396587,-75.1589404835358
25,19112,4ca0ceea8afca0930b011616,T&N Sandwich Shoppe,Sandwich Place,39.914402,-75.178126
26,19112,4c0957c5009a0f47ae9ae7bf,City Pizza,Pizza Place,39.91709100566702,-75.1748219479249
27,19112,4bc75e0615a7ef3bdf4379da,P & S Italian Specialties,Deli / Bodega,39.917309,-75.177127
28,19112,4e849c066da10afb2adab728,Mike's Lunch Truck,Food Truck,39.90279476302367,-75.15250015951477
29,19112,4c612f77de6920a1b3a29764,Oregon Express,Breakfast Spot,39.916311393010226,-75.16712637982636
30,19115,4c1d2a48eac020a1ddc247c2,Andonio's Diner,Diner,40.0853993706215,-75.04739627732562
31,19115,4c4dc7241b8e1b8dbacb2c26,Judah Mediterranean Grill,Mediterranean Restaurant,40.0856219058616,-75.04551760864976
32,19115,55abe495498ec31d61554333,Ateethi,Indian Restaurant,40.08666787014,-75.04521454669637
33,19115,4ad12fcbf964a5205add20e3,Taste Queen,Chinese Restaurant,40.086797610511766,-75.04460993851566
34,19115,4bf84e8f5ec320a1e68c88d3,Steve Stein's Famous Deli,Deli / Bodega,40.08706289818344,-75.04447442795792
35,19115,5490bad1498e9b626a31fcc2,Little Caesars Pizza,Pizza Place,40.08602,-75.03921
36,19115,4c361a063849c9280374bbb1,Slack's Hoagie Shack,Sandwich Place,40.08760869230212,-75.03946698665835
37,19115,4c953a3538dd8cfa35d7d062,Perkins Restaurant & Bakery,American Restaurant,40.08695132420417,-75.03904849290848
38,19115,4cf06277899c6ea8ad63eac1,Shish Kabob Palace,Middle Eastern Restaurant,40.086832442687715,-75.03892669251098
39,19115,4b894e1df964a520102a32e3,Kelly's Seafood,Seafood Restaurant,40.08358173956815,-75.03825803750097
40,19115,4c825785d8086dcb50397552,Philly Pretzel Factory,Restaurant,40.086699109344124,-75.0388307054889
41,19115,4c816ee9dc018cfa66c5c56c,Macaroni's,Italian Restaurant,40.081751766528214,-75.03840133587906
42,19115,5079e1f3e4b0801688f69332,Sushi Hibachi Grill And Supreme Buffet,Chinese Restaurant,40.08810294008241,-75.03927563951676
43,19115,4befedc1d4f70f478647390f,Nate's Hot Bagels,Bagel Shop,40.08751686104403,-75.03873997029585
44,19115,4bc49a89f8219c748393b710,To-Kai Sushi & Hibachi Steak House,Sushi Restaurant,40.08650584215127,-75.0379716123069
45,19115,4b894eacf964a520302a32e3,Gearo's,Seafood Restaurant,40.08219621983966,-75.03710255395423
46,19115,4bf749d25efe2d7f91d96834,Randi's Restaurant and Bar,Italian Restaurant,40.08869819283775,-75.03850301645043
47,19115,4bb8c9ef53649c74135347fb,Big Daddy Pizza,Pizza Place,40.08094464304296,-75.03722190856934
48,19115,4b2ffbb2f964a520d8f324e3,Vince's pizza,Pizza Place,40.08407211303711,-75.0354995727539
49,19115,4e7de5ea29c294ffa2d574df,The hot dog lady,Food Truck,40.089903913655455,-75.0699695405366
50,19115,4b367a60f964a520613625e3,Tiffany Diner,Diner,40.074117,-75.036018
51,19115,4bb8ef6b1261d13a0520e998,Red Lobster - Temporarily Closed,Seafood Restaurant,40.075949,-75.034346
52,19115,4bbd2801593fef3b472d0356,Applebee's Grill + Bar,American Restaurant,40.07660627878859,-75.03359916443864
53,19115,4ba6821cf964a5203e5939e3,Olive Garden,Italian Restaurant,40.07848938848353,-75.03186134774595
54,19115,4c35fc73a0ced13a63a31a6e,Saladworks,Salad Place,40.07311877074962,-75.03500016181661
55,19115,4ab6d123f964a5202d7920e3,Boston Market,American Restaurant,40.074261,-75.0333204
56,19115,57d7cf25498ea406d90d5609,Chipotle Mexican Grill,Mexican Restaurant,40.0742819,-75.0331506
57,19115,4c3cb7e6b36ac928f97d0486,Dunkin',Donut Shop,40.0734399,-75.0337154
58,19115,4c25cfb3f7ced13a3c39256d,Dunkin',Donut Shop,40.066239052696766,-75.05157046334375
59,19115,4bd9ec3a8668c9b6259cf209,Las Margaritas,Mexican Restaurant,40.07281488836206,-75.03389447499627
60,19116,4bed62233372c9288f841114,Jim's Soft Pretzel Bakery,Bakery,40.11121584818521,-75.00193233101903
61,19116,4bbcc002f57ba593ea2dadb9,Adriano's Cucino,Italian Restaurant,40.123692144267814,-75.01451452755677
62,19116,4ded2aa17d8bb216741e8ada,Cuginni's,Sandwich Place,40.12351168672071,-75.01460371007289
63,19116,4bf51598706e20a11700aa98,Dunkin',Donut Shop,40.11909,-75.015087
64,19116,5144eb1ee4b0c4e4f18eecac,Cafe Lava,Eastern European Restaurant,40.124435,-75.01467099999999
65,19116,4db1ee271e729fcc565ddaca,King Wok,Chinese Restaurant,40.13073579372326,-75.01021927766776
66,19116,4be7264fd4f7c9b6de872720,Uzbekistan,Eastern European Restaurant,40.122650843914045,-75.01600239028657
67,19116,4cd6dae2b2a437047a0a8744,Manhatten Bagel,Bagel Shop,40.12477111816406,-75.01538848876953
68,19116,4aa3feb7f964a520c64420e3,Restaurant Lanjeron,French Restaurant,40.12477111816406,-75.01538848876953
69,19116,4b8b0b37f964a520de8f32e3,To-Yo,Sushi Restaurant,40.12495655459379,-75.01534236174332
70,19116,4c28c1bece3fc9284fa16d88,Manhattan Bagel,Bagel Shop,40.12461284614196,-75.01553624868393
71,19116,4dcdc2b8b0fb25f6e3330c2a,Atrium Bistro at Radisson Hotel - Trevose,Italian Restaurant,40.12333795544044,-74.97800692242734
72,19116,4e4ce038bd413c4cc66ce07b,Kin Wha Garden,Chinese Restaurant,40.119603843412655,-75.01800196393685
73,19116,4c07ee6cffb8c9b6fa706761,La Casa Di Lucia,Italian Restaurant,40.132395,-75.010868
74,19116,4e4ce030bd413c4cc66ce035,Costas Pizza And Grill,Pizza Place,40.11951632363321,-75.0180823275146
75,19116,4b76f6a7f964a520196f2ee3,Pho Palace,Vietnamese Restaurant,40.133357859533085,-75.01006401671937
76,19116,4a6ba60af964a5207dcf1fe3,Station Pizza,Pizza Place,40.13202214601162,-75.01218226412408
77,19116,527eaea9498e8d519803d040,Ninja Sushi & Hibachi Dachi,Sushi Restaurant,40.13195103576793,-75.01227785402284
78,19116,528ff46511d2203866db5252,Larry 's Steaks,Sandwich Place,40.13454818725586,-75.00833129882812
79,19116,51e9b937498e996a1b97122e,Little Caesars Pizza,Pizza Place,40.13458206868068,-75.00832593076956
80,19116,4e4e683dbd4101d0d7a97c68,Domenic's Pizza,Pizza Place,40.13272843,-75.01176388
81,19116,4cb716b886e09eb0ebac62e2,Dunkin',Donut Shop,40.13480284179464,-75.00802750437794
82,19116,4b57b6a2f964a5204f3d28e3,Steve's Prince of Steaks,Sandwich Place,40.10427703378271,-75.00076571010635
83,19116,4c49a0071b430f478393c9c3,Dunkin',Donut Shop,40.13292694091797,-75.01216888427734
84,19116,4e93758f02d5a677b0485f77,Kyoto Japanese Cuisine,Japanese Restaurant,40.135308568326145,-75.00772541628437
85,19116,4e3c85087d8b0e96105db23e,Kyoto,Japanese Restaurant,40.13537176333659,-75.0078518561579
86,19116,4f2345e4e4b0d609c558d2fc,Global Bistro,American Restaurant,40.13542556762695,-74.98310089111328
87,19116,4b4cf86af964a52002c626e3,Toscana 52,Italian Restaurant,40.13535820254713,-74.97968730685841
88,19116,5818901e38fa5b066b41eac6,Baja Fresh,Taco Place,40.14026929056657,-74.9895261805927
89,19116,4c2f7bcd452620a181961d0f,Illiano Pizza Restaurant,Pizza Place,40.129023,-75.02351800000001
90,19119,4ce6b56d8ef78cfa97498e9b,Lincoln Drive Delicatessen,Deli / Bodega,40.054035999999996,-75.193927
91,19119,4b7aaae8f964a5204b362fe3,High Point Cafe,Café,40.05758040214426,-75.19466512590168
92,19119,4a6b229af964a52009ce1fe3,High Point Cafe,Café,40.04634234328383,-75.19590220363226
93,19119,5411e7b7498edd6d453fc219,Malelani cafe,Mediterranean Restaurant,40.05314704951357,-75.1861188106294
94,19119,4c5d7d066147be9a64149209,Kim's Trio Delight Cafe,Café,40.05204688879754,-75.1854487533013
95,19119,4f1c1b1be4b0f67a97697c95,Little Jimmie's Bakery Cafe',Bakery,40.051414451183,-75.1850006027188
96,19119,4bb67158941ad13a6c701fe3,Chef Ken's Cafe,Southern / Soul Food Restaurant,40.05932144714063,-75.19034085605279
97,19119,53bdef1e498e495052aed4e0,Cresheim Valley Grain Exchange,American Restaurant,40.059703408263374,-75.19072848407204
98,19119,4b942053f964a520e46934e3,Mi Puebla,Mexican Restaurant,40.059973838807224,-75.19084821299859
99,19119,549a0ff8498e3fb73078d001,Trattoria Moma,Italian Restaurant,40.059709999999995,-75.189911
100,19119,50f83497e4b0768655e0eaaf,Jyoti,Indian Restaurant,40.06044267121043,-75.19133328690361
101,19119,4be6e8212468c9281fcd0143,Toto's Pizzeria,Pizza Place,40.04357029034545,-75.1908096336729
102,19119,523b776f11d298d7c0ae1ef4,Mt Airy Street Fare,Food Truck,40.0601278909195,-75.18716679252024
103,19119,50a947cbe4b0445d671d1815,Cafe Mills,Vegetarian / Vegan Restaurant,40.042396,-75.19005
104,19119,5759f559498e538bbfaf32a4,Jansen,New American Restaurant,40.062685,-75.193164
105,19119,500abef8e4b000b8d8fc46f4,Mt. Airy Deli,American Restaurant,40.06319989119954,-75.18790085340645
106,19119,4acfaaf9f964a52034d520e3,Yu Hsiang Garden,Chinese Restaurant,40.067189845486666,-75.19714455864226
107,19119,4b4f7863f964a520f30727e3,Night Kitchen Bakery,Bakery,40.06816913943149,-75.19798824625123
108,19119,4b37ac94f964a520194425e3,Valley Green Inn,American Restaurant,40.05434103349346,-75.21796241664492
109,19119,4b904c47f964a520748233e3,Hokka-Hokka,Japanese Restaurant,40.06918520707966,-75.19953171708931
110,19119,4b54ef85f964a520fcd327e3,CinCin Restaurant,Chinese Restaurant,40.069231,-75.199751
111,19119,4c96950738dd8cfa5dc7dc62,All the Way Live,Vegetarian / Vegan Restaurant,40.040613,-75.178657
112,19119,4c17a00d30d30f4745c736a9,The Nile,Vegetarian / Vegan Restaurant,40.039571837651785,-75.17788841360468
113,19119,4d89ed9c7139b1f7c31cbfd4,Newmans Grill,Breakfast Spot,40.03900541765774,-75.17735238695988
114,19119,4a9d44c3f964a520143820e3,Baker Street Bread Co,Bakery,40.07115,-75.20079
115,19119,4c1118ac6b7e2d7f3aac2835,Dunkin',Donut Shop,40.06723153203835,-75.17827104658613
116,19119,4bca0ade0687ef3b371cdbcc,Platinum Grille,American Restaurant,40.07276081486678,-75.19468577556653
117,19119,4b4a3bddf964a520f47f26e3,Mario's Pizza,Pizza Place,40.073206722930635,-75.19504924536976
118,19119,4b4e2dd1f964a52040e426e3,Bredenbeck's Bakery,Bakery,40.072671634960415,-75.20232386189109
119,19119,554fe748498ea1262ec7a9b3,Biryani Bowl,Indian Restaurant,40.07344564742198,-75.19794939047704
120,19121,51728e70e4b04c63541c0c4a,iMunch,Café,39.975939,-75.186286
121,19121,54e73d72498ef73903600abe,The Monkey & The Elephant Café,Café,39.974580401264056,-75.182955435364
122,19121,58dfdf82a36ecd15df5cc3d2,Pizza Dads,Pizza Place,39.974647999999995,-75.182503
123,19121,569c1287498eb5f3503e3e7d,SpOt Gourmet Burgers,Burger Joint,39.97452463103979,-75.18263388818384
124,19121,51edb830498e2e432117a1c5,Rybrew,Sandwich Place,39.97437923579758,-75.1825098320958
125,19121,57e7025b38fa7204f0e016e9,2637brew,American Restaurant,39.97424890827338,-75.18022167955291
126,19121,4c8c1756c37a6dcb6937f47a,Bob's Crab Shack,Seafood Restaurant,39.99732840344691,-75.17976126407186
127,19121,4a626573f964a520f1c31fe3,Trio,Asian Restaurant,39.970369965319335,-75.18048119038606
128,19121,4c44f6ae36d6a593354a6ba8,Dasiwa,Sushi Restaurant,39.96894196352954,-75.17997023067855
129,19121,4ad35f73f964a52002e420e3,Tacos Don Memo,Food Truck,39.982926043160916,-75.20789926749907
130,19121,4d892e085ecdf04dfac5a48a,Tejada Grocery,Deli / Bodega,39.972831,-75.201309
131,19121,4e611befaeb7360314558eba,Eagles Nest,Hot Dog Joint,39.96944358572065,-75.19510218515578
132,19121,4abe3be6f964a520208c20e3,Figs,Mediterranean Restaurant,39.96839401647117,-75.17854186604552
133,19121,57030987498e99b675dde289,Amasi,Middle Eastern Restaurant,39.979561548550244,-75.16387475135714
134,19121,4dce9667e4cd130e166a2303,Spiro's Breakfast & Lunch,Breakfast Spot,39.9739,-75.204099
135,19121,4b8da9bdf964a520330733e3,Gigi & Big R Caribbean Soul Food Cart,Food Truck,39.99911868753525,-75.20134586878855
136,19121,4bb231024019a593ab7c36b8,Please Taste Cafe,Café,39.97931507553041,-75.20889894186793
137,19121,4b09a91ff964a520301b23e3,Little Pete's,Diner,39.96729704572385,-75.17767089808656
138,19121,4f0d9f03e4b01ae23f323af1,La Calaca Feliz,Mexican Restaurant,39.96763782322356,-75.17608745039246
139,19121,4abd6523f964a5200e8a20e3,Luigi's Pizza Fresca,Italian Restaurant,39.96733923741146,-75.17700588849584
140,19121,4a9a8e25f964a520d83120e3,Pete's Famous Pizza,Pizza Place,39.96729564873277,-75.17630977041854
141,19121,4d8a82df76e1236a3e481c43,New Neighborhood Food Market,Deli / Bodega,39.973651000000004,-75.206214
142,19121,568dcdf5498e0b9eecd067ed,Amano,Italian Restaurant,39.9672454918646,-75.17533069337698
143,19121,4aaae54cf964a520e85720e3,Zorba's Tavern,Greek Restaurant,39.96729520762904,-75.1749246870816
144,19121,569d001d498e4c558ea906e4,Champ's Diner,Bistro,39.979286,-75.160966
145,19121,4be5dde3bcef2d7fbf7304e5,McDonald's,Fast Food Restaurant,40.00475730795104,-75.17984032630926
146,19121,4d0f8ef5ba378cfa84e47193,Mimmo's Pizza,Pizza Place,40.00474727563029,-75.17873097184828
147,19121,505100f6e4b02dee625a2b5f,Maple Star,Chinese Restaurant,39.979211,-75.16043499999999
148,19121,4e305759c65b80dfd84a1a22,Good Garden,Chinese Restaurant,40.00444412231445,-75.17713928222656
149,19121,4adca64df964a520472e21e3,"""Sexy"" Green Truck",Food Truck,39.98092522396936,-75.15972823102696
150,19126,4cc4b3eb01fb236a5384adba,Corfu Pizza,Pizza Place,40.05589759118875,-75.14040103529868
151,19126,4b8d7afef964a52042fe32e3,Jong Ka Jib,Korean Restaurant,40.05189556239049,-75.12727325089045
152,19126,5560c56b498e62cbada8fd76,Sang Kee Asian Kitchen,Chinese Restaurant,40.06275405566974,-75.13791759833002
153,19126,4b11678cf964a520d57b23e3,Paris Baguette Café,Bakery,40.06274578292559,-75.13681795609725
154,19126,4ca77f9276d3a093df380c6b,H-mart Food Court,Korean Restaurant,40.06282929725983,-75.13693400913762
155,19126,4b11542ef964a5205c7a23e3,More Food Court,Food Court,40.06284445594084,-75.13687329547669
156,19126,5514262d498ef675aa8fc0c3,DuBu,Korean Restaurant,40.062911190536916,-75.13770755683059
157,19126,55426c45498e88d7fe54b855,Café Bene,Café,40.063045185437055,-75.13767015652417
158,19126,4b513252f964a520e44627e3,Cafe Soho,Korean Restaurant,40.05513978378155,-75.1259646392571
159,19126,4c4a3118c668e21eaec940f8,Dunkin',Donut Shop,40.044944,-75.142839
160,19126,4d5b4165042eb1f7b9c032f4,Popeyes Louisiana Kitchen,Fried Chicken Joint,40.04491878858897,-75.14380285957117
161,19126,4c14384fa1010f47e4264c18,Papa John's Pizza,Pizza Place,40.044929135709104,-75.14390345039726
162,19126,4c62104d86b6be9a9c6b8b34,Imperial Palace Chinese Restaurant,Chinese Restaurant,40.0435205,-75.1433637
163,19126,52da9236498e847d87dcc861,Breakfast Boutique 2,Breakfast Spot,40.0434837217926,-75.14362764486955
164,19126,4cb65e2ab315a09348b19b76,Moonlight Cuisine,Restaurant,40.058425981533034,-75.15308942487157
165,19126,4d2a21c6f7a9224b709704a0,Sol Levante Bakery,Bakery,40.06443038660622,-75.14811554432545
166,19126,4c772aef947ca1cdf3d24637,Bruno's Pizza,Fast Food Restaurant,40.06446078715238,-75.14812899045
167,19126,4e4e2518bd4101d0d7a34aa5,KFC,Fried Chicken Joint,40.042671870426474,-75.14467983438999
168,19126,4c81891051ada1cd8c0b1410,Kim's Restaurant,Korean Restaurant,40.042173406131376,-75.1290772008023
169,19126,4de971e77d8b6c7a5324ce2c,Little Caesars Pizza,Pizza Place,40.062997972184775,-75.15193854356367
170,19126,4bf9d88bbc869521cbcc7a6b,Papa Nick's Pizza,Pizza Place,40.04502756400345,-75.12353836750226
171,19126,4e2320af45dd950bb0366248,Edison Mini Market,Deli / Bodega,40.05059617760586,-75.15539289385354
172,19126,4c8405842f1c236a46594843,Ron's Caribbean Cuisine,Caribbean Restaurant,40.04070107095332,-75.14464427580921
173,19126,4b9c1a97f964a5206d4a36e3,Relish Restaurant,Southern / Soul Food Restaurant,40.06349742404461,-75.15297290841697
174,19126,4cb7165c86e09eb0ffab62e2,Dunkin',Donut Shop,40.051255,-75.118065
175,19126,51c37bfb498e7d858e409b69,Night Market West Oak Lane,American Restaurant,40.063869345175426,-75.1530930106894
176,19126,4d8b94127139b1f72025e3d4,Seafood To Go,Seafood Restaurant,40.06800686340561,-75.14695067403116
177,19126,4d30aaada241f04dafb1b627,Domino's Pizza,Pizza Place,40.06810853987255,-75.14674439100872
178,19126,4cfac86234c1a093625c420e,Hoagie Factory,Sandwich Place,40.06427854378656,-75.15308523727812
179,19126,4d59c083fe7c224bbc7d7bb5,Jamaican D's Inc.,Caribbean Restaurant,40.052323435160304,-75.15779762711026
180,19127,4ef8f4db9a52c908426a9853,Han Dynasty,Chinese Restaurant,40.0255810217567,-75.22382460811681
181,19127,4b400432f964a52045b425e3,Jake's and Cooper's Wine Bar,New American Restaurant,40.02573725907788,-75.22425082675446
182,19127,4adccf93f964a520153021e3,Chabaa Thai Bistro,Thai Restaurant,40.025885185734644,-75.22444180920658
183,19127,4b5c9e99f964a520513a29e3,Il Tartufo,Italian Restaurant,40.025473251070764,-75.22338611183628
184,19127,525c6f04498e85866a42a730,Taqueria Feliz,Mexican Restaurant,40.02603429958777,-75.22505097899997
185,19127,5162f759e4b02b32f94f60c4,Smiley's Cafe,Mediterranean Restaurant,40.025492204179315,-75.22249512318979
186,19127,52e066cb498e6d30252c4b01,Insomnia Cookies,Bakery,40.025054984899086,-75.22262487733431
187,19127,4e6954c818508885f6193510,Lucky's Last Chance,Burger Joint,40.02627280871978,-75.2255920094606
188,19127,58e2d48ff63c54423edce7b3,SOMO Manayunk,New American Restaurant,40.0249665559515,-75.22232850421007
189,19127,4cf1601ab3662c0fdb4c7830,Laxmi's Indian Grille,Indian Restaurant,40.026324520823714,-75.22573902170284
190,19127,4a92d601f964a520d91d20e3,Winnie's Manayunk,American Restaurant,40.02486754006332,-75.22223422536108
191,19127,50089857e4b00cbfbefe1c36,Yanako,Japanese Restaurant,40.024787588365996,-75.22160024625965
192,19127,49fc5f10f964a520996e1fe3,The Couch Tomato Café,Italian Restaurant,40.0247731,-75.22131619999999
193,19127,4e9b4990722edf21e2c71f30,The Couch Tomato Bistro,Tapas Restaurant,40.02466297874437,-75.22134222904128
194,19127,54f9c5ae498e2f420f9cddb9,Greg's Kitchen,Breakfast Spot,40.026710222598815,-75.2266564380499
195,19127,53d27c21498ef47767c223c7,Union Taco,Taco Place,40.02427842476546,-75.22094699222305
196,19127,4ab90560f964a520b37d20e3,Riverside Pizza,Pizza Place,40.0240280182151,-75.22062481636779
197,19127,4bff05f54e5d0f47b28e7d1f,Sugar Philly Dessert Truck,Food Truck,40.027008101321094,-75.21804794431328
198,19127,4b4fb05df964a520041127e3,Mike's Pizza,Pizza Place,40.02241262392,-75.21857897623492
199,19127,4b5200d4f964a520956027e3,Siam Express,Thai Restaurant,40.029908,-75.218775
200,19127,4bf938d3b182c9b6638d785a,Marciano's Bakery,Italian Restaurant,40.03083380971465,-75.23028478213506
201,19127,40b28c80f964a520d5f91ee3,Adobe Cafe,Mexican Restaurant,40.0343805716533,-75.21925831459981
202,19127,4c01adad27dcc9286afae052,La Collina Ristorante,Italian Restaurant,40.024412291275254,-75.23573389472995
203,19127,4b7c1910f964a520c37c2fe3,Primo Hoagies,Sandwich Place,40.03248278514633,-75.21443031779097
204,19127,4b8b1bb7f964a5204c9332e3,Zesto Pizza,Pizza Place,40.032169010467236,-75.21400014049588
205,19127,4b68d1e4f964a520988e2be3,Papa John's Pizza,Pizza Place,40.03200915286937,-75.21331935099903
206,19127,4b798ea5f964a5203f012fe3,Bob's Diner,Diner,40.032919,-75.21426
207,19127,54996aae498ef56f91847f35,Taylor's Cafe,American Restaurant,40.03439113736668,-75.21638063745445
208,19127,4f74a80ae4b006a67e12e6de,Dream House Asian Bistro,Sushi Restaurant,40.034351951793894,-75.21604176624462
209,19127,4b5868eff964a520785628e3,Subway,Sandwich Place,40.03433659648716,-75.2159225321635
210,19129,511ef62de4b09c463e377b9e,Laxmi's Indian Grille,Indian Restaurant,40.012879999999996,-75.190158
211,19129,4e13856c88777cd5da2c1b78,Fiorino Cucina Italiano,Italian Restaurant,40.00989163161497,-75.19047450022948
212,19129,4c1189c217002d7f9073e609,Frank's Pizza,Pizza Place,40.01313,-75.19421
213,19129,4c3669fa18e72d7fa0d514f5,Golden Crust III,Pizza Place,40.009040029422415,-75.19376001612271
214,19129,4bd640d3cfa7b713536427da,Shan Chuan,Chinese Restaurant,40.00922,-75.19407
215,19129,5a73bcea82644476feeba7c1,Le Bus East Falls,New American Restaurant,40.00893258921812,-75.19384009560822
216,19129,4b96d15bf964a5209ce634e3,Major Wing Lee Grocery Market,Deli / Bodega,40.008783809821296,-75.19402866276643
217,19129,57be21f1498ed94e626c12c5,Foghorn,Fried Chicken Joint,40.008938863703705,-75.1942776288331
218,19129,4de253c5d22d2a4ecdc2767a,Trolley Car Cafe,Café,40.007467619477836,-75.19140578660512
219,19129,4ee695672c5b5fc6ce66f389,In Riva,Pizza Place,40.00777774573194,-75.19234900876033
220,19129,4bd7609588559521bb6587a7,Slices Pizza,Pizza Place,40.009533563637746,-75.19559519925866
221,19129,4bfe5ad4bf6576b00085aeb8,Dunkin',Donut Shop,40.0094026,-75.1965193
222,19129,575c6ce3498eefb679233fc8,Wingstop,Wings Joint,40.010768,-75.177072
223,19129,529e0feb11d228cb097a6d41,Subway,Sandwich Place,40.010724217583586,-75.17628395237105
224,19129,521e512811d2f7e473504fec,Wendy’s,Fast Food Restaurant,40.010748107487466,-75.17535835504532
225,19129,4b900e15f964a520cb7233e3,Dunkin',Donut Shop,40.01993772509903,-75.17446519042278
226,19129,5698e63f498e3b26734e5978,Dunkin',Donut Shop,40.00760267249181,-75.17437146730478
227,19129,5294bb7e498e0cb7db96594b,Checkers,Fast Food Restaurant,40.007938,-75.173705
228,19129,4d42345bf0dba1cdca363149,Dekes BBQ Carry- Out & Catg,American Restaurant,40.01526,-75.208115
229,19129,513fad59e4b01e2900669069,SUBWAY,Sandwich Place,40.030494689941406,-75.18115234375
230,19129,4bd3ab68b221c9b67064dad0,Park Manor Deli,Deli / Bodega,40.03047427870507,-75.1801175010946
231,19129,4e8efd52b8f7c08295c4308c,Richmond's Reataurant,Breakfast Spot,39.99875463474398,-75.17813323035175
232,19129,4b522c85f964a5206d6d27e3,Commissary Food Market,Snack Place,40.01999,-75.210027
233,19129,5890d67e65be58175bb8270f,Panera Bread,Sandwich Place,40.0083024,-75.2097637
234,19129,4d3348dbf8c9224bebf9b8d2,Wendy’s,Fast Food Restaurant,40.0310442976641,-75.1782256364823
235,19129,4ef0b0230e01e1fde2b4d5dd,Mazzonis Deli,Deli / Bodega,40.00338843054778,-75.20677001304014
236,19129,5183ef00498ec8f90a3be1f4,Roly Poly,Sandwich Place,40.009981823976965,-75.21096333861351
237,19133,4cb716b786e09eb0e6ac62e2,Dunkin',Donut Shop,39.99208722535595,-75.14184182331354
238,19133,4e93984c30f866d4866d8128,Romano's Pizza,Pizza Place,39.995233,-75.13929
239,19133,4bfc0f07b5cd2d7fa30331fb,Popeyes Louisiana Kitchen,Fried Chicken Joint,39.991568,-75.13805500000001
240,19133,4b7b702af964a520a0632fe3,Isla Verde,Latin American Restaurant,39.99211527223426,-75.13576705583509
241,19133,4c111c4eb93cc9b6a8cf57e0,Checkers,Fast Food Restaurant,39.99125046021602,-75.13565157246681
242,19133,4bfecba9c30a2d7f3805101d,Wendy’s,Fast Food Restaurant,39.99067701696071,-75.13585376436822
243,19133,4db33f2e81543d71da2cd114,Seafood Truck,Seafood Restaurant,40.00033353,-75.14410387
244,19133,4e38a2bfbd415d9f63d7070d,Dunkin',Donut Shop,39.9941291809082,-75.1538314819336
245,19133,538ba2e9498ef911b52b1986,Taqueria Mexican Restaurant,Mexican Restaurant,39.998931,-75.134016
246,19133,4dc32356c65b89d3ca34203c,Kurth's Seafood,Seafood Restaurant,39.985363,-75.147913
247,19133,4dcab704fa7684db0907a1bd,Taqueria La Raza,Mexican Restaurant,39.999428,-75.134237
248,19133,4ae9f1e2f964a520dab721e3,Freddy And Tony's,Caribbean Restaurant,39.99920534890349,-75.13339774763976
249,19133,4d41f0e5aed776eb85b76997,Domino's Pizza,Pizza Place,39.993455,-75.154688
250,19133,4b8d3c1df964a520fbee32e3,Sunny's Diner,Diner,39.990971,-75.154702
251,19133,4d72e12cec0754811b2890bf,Taco Bell,Fast Food Restaurant,39.99938915317863,-75.13298284079991
252,19133,4c61d49f79d1e21e33b7d415,KFC,Fried Chicken Joint,39.99935515112716,-75.13292395398463
253,19133,4c45cc1e2d3ec9b68fbd30ae,Corner Store,Deli / Bodega,39.98682212040547,-75.15249445901188
254,19133,4c658382e1da1b8de26298c3,Freddy & Tony's,Spanish Restaurant,39.99558283846876,-75.12982207005267
255,19133,4daf658a0cb6ead7fdce7817,Crabs Plus,Seafood Restaurant,39.993960245788145,-75.15586912060648
256,19133,4c890a6b944e224bf6332185,Tribeca Cafe,Café,39.98990249633789,-75.12946319580078
257,19133,4cb529d8b315a09356e39276,Taco Bell,Fast Food Restaurant,39.999708159694784,-75.1537597344543
258,19133,515c82d2f0e417244277b958,KFC,Fried Chicken Joint,39.99977216153856,-75.15372784984572
259,19133,4cbb13f50180721e09739d61,Olympia Resaurant,Breakfast Spot,39.998692971700706,-75.13024825915127
260,19133,560af7ba498e58f05c1ef9dc,Dunkin',Donut Shop,39.98913799598834,-75.15593696334378
261,19133,5144e6cfe4b0702d25907b14,A &j Seafood,Seafood Restaurant,40.001312,-75.15324
262,19133,4d0c1ee1f393224b1b9914ee,Broad Street Pizza,Pizza Place,40.00131607055664,-75.15331268310547
263,19133,4cb5d99355af224b0681957e,Lee's Breakfast,Breakfast Spot,40.001413,-75.153248
264,19133,4fb91c9fe4b06b008d5ba5fa,Tri Ky Quan,Vietnamese Restaurant,39.988357,-75.128795
265,19133,4da9b9601e72c1ab9be25a1a,Sunshine Restaurant,Spanish Restaurant,40.00425720214844,-75.1372299194336
266,19133,4c126b90a5eb76b02d1fbeb7,SUBWAY,Sandwich Place,40.00218314315969,-75.15265293287516
267,19136,4be9603188ed2d7f1de1cc1d,Liberty Bell Diner,Diner,40.04449996303343,-75.01758420669366
268,19136,4c2e58803896e21e6417e290,Holmesburg Bakery,Bakery,40.041239004137104,-75.02851479652328
269,19136,4f79c7d6e4b025cca4f26381,The Buffalo House,Pizza Place,40.043754756333406,-75.01792999555883
270,19136,504f6b23e4b07b1ad01470a2,Johnny Rocks Grill,Sandwich Place,40.04626088427521,-75.01504136205666
271,19136,4ce1d7a0c4f6a35d8b9cdd6c,Number 1 China,Chinese Restaurant,40.048249528363236,-75.01272983120317
272,19136,4c543d3e4623be9a760974f2,Dunkin',Donut Shop,40.057264746273944,-75.02944345279599
273,19136,4bad4d0ff964a520c7433be3,Ashburner Inn,Pizza Place,40.04054167690766,-75.01537800040991
274,19136,4bae37f1f964a520d6933be3,Tate's Good Food,Breakfast Spot,40.04071515996326,-75.01452315075569
275,19136,4abe5462f964a520c38c20e3,The Dining Car & Market,Diner,40.05008284250526,-75.01127613847281
276,19136,4c2e67c5213c2d7f12222f5d,Domino's Pizza,Pizza Place,40.0516345,-75.010786
277,19136,4be48c87bcef2d7f5fb602e5,Dunkin',Donut Shop,40.03875193882323,-75.03620684372112
278,19136,4c434b4e5faf76b023e94820,Dunkin',Donut Shop,40.05097244968013,-75.01010598676834
279,19136,4c2e821f66e40f472766c08b,Rosewood Caterers,Restaurant,40.05110549926758,-75.01009368896484
280,19136,4bb561d346d4a5932704c5c0,Al's Corner Deli and Catering Services,Deli / Bodega,40.0353105,-75.0255189
281,19136,4c7a9b42566db60ccc79480e,Stella's Italian Pizza,Pizza Place,40.057274,-75.013852
282,19136,4c7a9c41a8683704fc23144d,Juliano's Deli,Deli / Bodega,40.057303999999995,-75.013896
283,19136,4bdb30a42a3a0f47ded8adb6,Philly Pretzel Factory,Snack Place,40.0377718025392,-75.03821940075663
284,19136,4c44b190f0bdd13a57f0c9cc,KFC,Fried Chicken Joint,40.05195449605134,-75.00799893001852
285,19136,4a109ab2f964a520e7761fe3,Mayfair Diner,Diner,40.037437,-75.03815
286,19136,4bca381e937ca593d06ea792,LkL deli,Deli / Bodega,40.062282,-75.022142
287,19136,4b36487bf964a520273225e3,Gino's Pizza Cafe,Pizza Place,40.03746,-75.03978
288,19136,4e4ceb4fbd413c4cc66d3a41,Salvitos Pizza,Italian Restaurant,40.062509999307906,-75.02201102770118
289,19136,4c7c475a48c6236a0e586111,Aya Asian Fusion,Sushi Restaurant,40.03711129088808,-75.04001244935688
290,19136,4e0b969062848063afc3f5c9,Emma's Cafe,Italian Restaurant,40.036819,-75.039974
291,19136,4bb1280ff964a520217f3ce3,Philomena Santucci's Square Pizza,Pizza Place,40.03616546525635,-75.04050036374656
292,19136,4c505c451886c9b625e39328,Drougie's Pizza,Pizza Place,40.036854999999996,-75.041454
293,19136,4ea5a2dcb8f7e4911ff61298,House Of Thai,Asian Restaurant,40.03735640147217,-75.04202493962205
294,19136,4b4a173bf964a520447a26e3,Village Restaurant,Diner,40.06452977355844,-75.0207583126034
295,19136,4c41dc8dff711b8db28c1205,Linden Italian Market,Deli / Bodega,40.05450471823575,-75.00432448097892
296,19136,4c24ff00f1272d7fb60184c5,Burger Bar,Burger Joint,40.05789359913322,-75.04429494459043
297,19137,4bc0dc24b492d13a6608a560,Renzi's Pizzeria,Pizza Place,39.99818399557578,-75.07431161401095
298,19137,4c83c46374d7b60c5d748cd8,Dunkin',Donut Shop,40.008265462895075,-75.0737908219514
299,19137,55c3972f498e73016e9f82bd,Wingstop,Wings Joint,39.996554891859304,-75.08994042662216
300,19137,4d8922ff4757721e02cc9b69,Old London Style Pizza,Pizza Place,40.010379,-75.07902
301,19137,4b979874f964a520af0a35e3,Chick-fil-A,Fried Chicken Joint,39.997282,-75.0927623
302,19137,4c0d4c39c700c9b6b132a2dd,Sonic Drive-In,Fast Food Restaurant,39.9983286275457,-75.0938192162174
303,19137,4c6a85f8c946e21e4ddaec8e,Dunkin',Donut Shop,39.99612264972522,-75.0928692519351
304,19137,552e9dea498e096460ec05cd,East Coast Wings & Grill,Wings Joint,39.9939238,-75.0913888
305,19137,4e3fe76ad164b52911cbe7fb,Bakery Department,Bakery,39.994477,-75.09212672710419
306,19137,4c503a693a6f2d7f18dd3577,Petes Clown House,Breakfast Spot,40.00373976583405,-75.09459756755432
307,19137,4af756d7f964a520890822e3,McDonald's,Fast Food Restaurant,39.99460189859843,-75.09368143512347
308,19137,4c2e3503987f20a10fc24aaa,Taco Bell,Fast Food Restaurant,40.00666970755533,-75.09414704603245
309,19137,4e4e250ebd4101d0d7a3497a,KFC,Fried Chicken Joint,40.006611446993084,-75.09425250735762
310,19137,4ba684a0f964a520475a39e3,Applebee's Grill + Bar,American Restaurant,39.99312103169282,-75.09274950826158
311,19137,4c6b5bfc7c052d7fe19929cf,McDonald's,Fast Food Restaurant,40.00629306542047,-75.09459435939789
312,19137,4c38b90eae2da593d42f01c6,Dunkin',Donut Shop,40.00564570035046,-75.09578934999507
313,19137,4bd87b66f645c9b6c40ba8e0,Burger King,Fast Food Restaurant,39.99371943913911,-75.09453792390161
314,19137,4b6997aff964a520cda82be3,Boston Market,American Restaurant,39.99464517632344,-75.09525412566063
315,19137,4c8ea7e81664b1f7862ba22f,Little Caesars Pizza,Pizza Place,39.9950241247399,-75.09551134270527
316,19137,4e4e250dbd4101d0d7a3495f,KFC,Fried Chicken Joint,39.99406084999589,-75.09497403663886
317,19137,4cbdc2e9bac93704ae23007d,Church's Chicken,Fried Chicken Joint,40.006502000000005,-75.096482
318,19137,4af75999f964a520a50822e3,Taco Bell,Fast Food Restaurant,39.993680411704155,-75.09569438520096
319,19137,4befecaed4f70f47ad46390f,Dunkin',Donut Shop,40.0135603,-75.0679571
320,19137,4dd2777d814d415b769440b6,Checkers,Fast Food Restaurant,39.9934959,-75.097568
321,19137,4b941141f964a520926534e3,Popeyes Louisiana Kitchen,Fried Chicken Joint,39.99276708185517,-75.09763231930089
322,19137,4bdb55093904a593c6dc499e,Bonks Crabs,Sushi Restaurant,39.988151412821836,-75.09271336854592
323,19137,570eb1a1498e8fb56ca44057,Panda Express,Chinese Restaurant,39.99253224716589,-75.09806287312958
324,19137,4c0af4097e3fc9284599f482,Romano's Catering,Restaurant,40.01312010866186,-75.09473224056909
325,19137,4bd7323632a29521b002d6b8,SUBWAY,Sandwich Place,39.99232320250646,-75.09982423029732
326,19137,4bd8c67fe914a5933d7c54fa,IHOP,American Restaurant,39.99217114039244,-75.10007589459403
327,19138,4e4e251abd4101d0d7a34ada,KFC,Fried Chicken Joint,40.058505682778396,-75.16432032270183
328,19138,4cb716c086e09eb0fcac62e2,Dunkin',Donut Shop,40.058659387124365,-75.16546762585304
329,19138,4d986734647d8cfa83e6ed3d,June's Restaurant,Breakfast Spot,40.05964054255748,-75.16581310524451
330,19138,4b6cae25f964a520b94b2ce3,Moy Fong,Chinese Restaurant,40.060771186522146,-75.1673561809562
331,19138,505f35a1e4b062a5a081deaa,The Breakfast Boutique,Breakfast Spot,40.05867572583439,-75.14948136291895
332,19138,4dfbe760c65b31579b2c96d8,Rodriguez Mini Mart #4,Deli / Bodega,40.05720388977297,-75.14897150872072
333,19138,4c77db29a690236ab7909eb5,Dawn's  Breakfast,Breakfast Spot,40.06414183703694,-75.15326907399044
334,19138,4c658fa37abde21e910a6168,Victoria's Kitchen,Southern / Soul Food Restaurant,40.06511226447757,-75.15534881747966
335,19138,4e4e6839bd4101d0d7a97c12,Pike's Seafood Inc,Seafood Restaurant,40.066677837129575,-75.15833293252196
336,19138,52d9da7d498e64db94ac5272,Ms Esther's,Restaurant,40.047564,-75.150746
337,19138,4e4e6549bd4101d0d7a93777,Eds Pizza,Pizza Place,40.047434,-75.15077099999999
338,19138,4e28440de4cd6c6cb344bae3,Skyline Restaurant,Breakfast Spot,40.045297,-75.164028
339,19138,4ebd9e5cbe7b04923b6d0cd4,Popeyes Louisiana Kitchen,Fried Chicken Joint,40.06761394485312,-75.15067028747951
340,19138,4ebac03e77c8100292b7fa3a,Peter's Chicken & Seafood,American Restaurant,40.06765559689135,-75.15055627605689
341,19138,4b9fbcd9f964a5200d3a37e3,Dunkin',Donut Shop,40.0434663,-75.1593686
342,19138,4c03e3ccf423a59396ccd016,In and Out Pizza,American Restaurant,40.070035,-75.157588
343,19138,4cb716a586e09eb0bdac62e2,Dunkin',Donut Shop,40.05432892444655,-75.14185953510207
344,19138,4b9faf04f964a520a43437e3,Pagano's Steaks,American Restaurant,40.07051500675487,-75.15728228084352
345,19138,4e34484ba8092599edf83474,Pizza Point,Pizza Place,40.05239907499958,-75.14164602813425
346,19138,545d6154498ed2afb80f7507,Takka Grille & Shrimpies,Seafood Restaurant,40.06755447387695,-75.14724731445312
347,19138,4e2843a21f6e88a154601cc5,Sunnyside Breakfast,Breakfast Spot,40.070978000000004,-75.157788
348,19139,4e5a3552a8098920b3c86730,Sunnyside Breakfast,Breakfast Spot,39.96241080452015,-75.24004681911573
349,19139,4e4462b0ae605a14b7e65b29,Graces Chinese,Chinese Restaurant,39.966862,-75.239936
350,19139,4ff4c1cfe4b0734a79a330ad,Pete's Pizza,Pizza Place,39.958773,-75.241209
351,19139,4cd4b6b676ab721e9dfe686a,Hyons 56th & Spruce St,Seafood Restaurant,39.955639260977534,-75.2339562741029
352,19139,4f04f55061af9d3db85ba580,Rodriguez Grocery,Deli / Bodega,39.96959461814268,-75.2340018544075
353,19139,4dde6d5988779c82bec3e9eb,GiGi's Soul Food,Southern / Soul Food Restaurant,39.969706678160954,-75.23890330121696
354,19139,503cbc88e4b00cfc74e6623a,Sunny's Breakfast,Breakfast Spot,39.960934,-75.224933
355,19139,4d9c86adc593a1cda5eb4a19,Top Taste,Caribbean Restaurant,39.96131526007094,-75.22467979530762
356,19139,4ca0c7d1d3c2b60c7f25e0bc,Yummy Diner,Breakfast Spot,39.96107029951289,-75.22467552739019
357,19139,4ccda48f97d0224bda6a67b8,Just To Serve You,Southern / Soul Food Restaurant,39.97055204334754,-75.23336161172071
358,19139,4c6d242b6af58cfa0b8b8817,52nd St Station Diner,Breakfast Spot,39.959695592791434,-75.22498104168608
359,19139,4c37728cae2da593b6e5fec5,Lebel's Pizza,Pizza Place,39.970892,-75.23275600000001
360,19139,4e5ebaeb62e1624313daec52,Little Caesars Pizza,Pizza Place,39.95714314001769,-75.22611886945822
361,19139,4bf2f76198ac0f47275962a8,West Point Pizza,Pizza Place,39.965879,-75.245763
362,19139,4bf2aa869319a593a530cb51,Brown Sugar Bakery & Cafe,Caribbean Restaurant,39.956472693718695,-75.22550884791522
363,19139,4cb716be86e09eb0f9ac62e2,Dunkin',Donut Shop,39.96952036219449,-75.24573189466315
364,19139,4ca3f2a4d5a2a1439d084e90,Bottom Of The Sea,Seafood Restaurant,39.953742999999996,-75.225974
365,19139,4dbc4328f7b1ab37dd59b09c,Poppies,Spanish Restaurant,39.95196612244941,-75.24096408349162
366,19139,52163f8911d2b508c3f9ea29,Tasties Kitchen,Southern / Soul Food Restaurant,39.97178926514143,-75.22596706325548
367,19139,4def9dfec65bf3f03e9a927a,LR Food Market,Deli / Bodega,39.971618,-75.225592
368,19139,4c585dce744a0f47c21acbcb,Super House,Chinese Restaurant,39.973847154764535,-75.22919426758997
369,19139,4bf51aa6706e20a13405aa98,A&A Steaks,Fried Chicken Joint,39.97211729723788,-75.24510570119138
370,19139,4d8a1f1726a36ea8d7daedad,Moo Jin Jang,Korean Restaurant,39.96283130420638,-75.25188507470128
371,19139,4ef4d930b8f77e0f98572bfa,Lopez Grocery,Deli / Bodega,39.9510234512975,-75.24312311013543
372,19139,544b020f498ee0bc25842969,48th Street Grille,Caribbean Restaurant,39.95319717197854,-75.21837079920277
373,19139,4c6704898e9120a118a7d964,Annie's Seafood,Seafood Restaurant,39.971946,-75.251552
374,19139,573e195f498ecf8376d3df35,Alaskan King Crabs,Seafood Restaurant,39.973061,-75.218987
375,19139,4cb716b086e09eb0d4ac62e2,Dunkin',Donut Shop,39.977260752444444,-75.22607368890283
376,19139,4be2e4f31dd22d7fa41095bd,Atlas Pizza & Steaks,Pizza Place,39.947097,-75.227939
377,19139,4e1c339052b1218fa01a4236,Mama's Breakfast Lunch,Breakfast Spot,39.94654898582956,-75.23967079612842
378,19150,4d67e4d15b376dcbc9d67167,Royal's Restaurant,Caribbean Restaurant,40.071739214955784,-75.16117996165909
379,19150,4d55d2cd9e508cfaa017059b,Talk of the town,Deli / Bodega,40.071920436696686,-75.16115263331842
380,19150,4bffbd4eca1920a1c42ded81,Breakfast Junction,Breakfast Spot,40.07965950702207,-75.17354940830631
381,19150,4b6b14bdf964a52074f12be3,Green Garden,Chinese Restaurant,40.080227018284766,-75.17291623474956
382,19150,4cc5b56ab2beb1f7b153244c,Philly Pretzel Factory,Restaurant,40.08039020876204,-75.17292052831101
383,19150,55eccb57498eda28010c8066,Little Caesars Pizza,Pizza Place,40.080457,-75.173105
384,19150,4d2260d68629224bd6e42287,Church's Chicken,Fried Chicken Joint,40.08026165477755,-75.16701266598467
385,19150,4d5f00299f67f04db04167fb,Bally's II Pizza,Pizza Place,40.072639,-75.157638
386,19150,4ce97e2af8653704ca5bb7c4,Popeyes Louisiana Kitchen,Fried Chicken Joint,40.08102099674863,-75.17084656921449
387,19150,4cb716c386e09eb002ad62e2,Dunkin',Donut Shop,40.08123026428102,-75.17124808011397
388,19150,4b454cf0f964a520310a26e3,SUBWAY,Sandwich Place,40.081592882705046,-75.16843397847452
389,19150,4ed6a84f77c86e4f2a9b9d5c,Fresca Pizza,Pizza Place,40.08201003000913,-75.17095014915186
390,19150,4cb49026b4b0a35d4b3768ce,Chick-fil-A,Fried Chicken Joint,40.0728072,-75.1550828
391,19150,4dab32305da3ba8a479bedf7,Auntie Anne's,Snack Place,40.07439742256465,-75.1552705794892
392,19150,5b3f8e2dd1a402002c040954,Chipotle Mexican Grill,Mexican Restaurant,40.07355,-75.154918
393,19150,4cec5b767b94370470382053,Church's Chicken,Fried Chicken Joint,40.07350625,-75.1548698
394,19150,5b731804f193c0002c5b694a,Panda Express,Chinese Restaurant,40.07490539550781,-75.15485382080078
395,19151,4c51cc4a94790f475678a9a1,Rice & Things,American Restaurant,39.97481739249177,-75.26132977780073
396,19151,4c47168089a6c9b64b059988,Stacy's Pizza,Pizza Place,39.976551,-75.264761
397,19151,4e4e65ffbd4101d0d7a94851,Danny's Express,Chinese Restaurant,39.96231429751416,-75.26207675632529
398,19151,4c3f60fcce54e21ee4f7071a,Philly Pretzel Factory,Snack Place,39.96224668082394,-75.25921030451403
399,19151,4c423ca3cc410f47d883ac61,Slices & More,Italian Restaurant,39.961866502770256,-75.2604231599354
400,19151,4df3a3566284fefe8fc3083a,Aquarius Restaurant Breakfast Club,Restaurant,39.961848060706146,-75.26032905982046
401,19151,4bf41c38706e20a1c7f1a898,Economic Food Market,Deli / Bodega,39.97661,-75.252922
402,19151,4be6c3d7bcef2d7f986b05e5,Green Leaf Restaurant,Diner,39.977610987011715,-75.2662475834395
403,19151,4c9fcdf3d3c2b60c3be9d7bc,Pho & Cafe Anh Hong,Vietnamese Restaurant,39.961614545339515,-75.2626536804091
404,19151,4d56d938a747b60c61d32d2b,Sunny's Pizza & Wings,Pizza Place,39.96144406998303,-75.25901200824094
405,19151,4ed9580e775bcc53f94502ea,Sa Bai Dee,Asian Restaurant,39.96155772362058,-75.26276603142131
406,19151,4c520a2a2543a5935a4fe084,Keystone Pizza,Pizza Place,39.963971347154754,-75.26954694726875
407,19151,4bd20bf2046076b0081a7371,Little Saigon,Vietnamese Restaurant,39.96087998406077,-75.26319217471699
408,19151,4c4effd2db2c20a1bc865375,Vincent's Pizza,Pizza Place,39.97491909622357,-75.24920782491786
409,19151,4c13264482a3c9b6111cfbf8,Soop Bin,Korean Restaurant,39.960551934150615,-75.26258745024826
410,19151,4cdeef0f7e2e236a4f74821b,Bryn Mawr Pizza,Pizza Place,39.978567,-75.268265
411,19151,51b9d97a498ec7b5644ba5ea,Philly Pretzel Factory,Snack Place,39.9601618964195,-75.25860185147694
412,19151,5101ce1ae4b0176381ef28ae,Taco Bell,Fast Food Restaurant,39.96372586452906,-75.27084213500346
413,19151,4b16ab3af964a520bdbb23e3,Leandro's Pizza House,Pizza Place,39.95999872249174,-75.25864860095555
414,19151,4c5e00d985a1e21ed8375b11,Nag Won Garden,Korean Restaurant,39.963903,-75.271757
415,19151,4effaaa1f9abd5b3906c0f00,Papa John's Pizza,Pizza Place,39.979257000000004,-75.268827
416,19151,4c1e12e2fcf8c9b61fabac0b,City Line Deli,Deli / Bodega,39.979535337474815,-75.26844475800083
417,19151,4cf00859ed62721e42e963fd,Best Cake Bakery,Bakery,39.97939682006836,-75.2688217163086
418,19151,4ba62511f964a520c53639e3,New York Bagel,Bagel Shop,39.979774051971354,-75.26830820274797
419,19151,4b7ea679f964a5203df72fe3,Casablanca Moroccan Restaurant,Moroccan Restaurant,39.97984313964844,-75.2683334350586
420,19151,58acd85d13af1c1875d32d43,Daiki hibachi & sushi,Sushi Restaurant,39.97984313964844,-75.2683334350586
421,19151,4b4a763bf964a520668826e3,shalom pizza,Pizza Place,39.97955398333333,-75.26912613333333
422,19151,542fb37e498ea11026dbf02c,ihop,American Restaurant,39.958709368636754,-75.2579709790851
423,19152,4d6832fede28224b78a232be,Big Al's Italiano Ristorante & Pizzeria,Pizza Place,40.06060736431641,-75.04483009760764
424,19152,4c6337efde1b2d7fec4fe470,Big Al's,Pizza Place,40.060367584228516,-75.04435729980469
425,19152,4b6eccb8f964a52019cb2ce3,Dattilo's,Deli / Bodega,40.05990391263666,-75.05248450980542
426,19152,4bb66f5c46d4a593a53ac6c0,Gallo's Seafood,Seafood Restaurant,40.05783236496468,-75.04451807878644
427,19152,4ada27a7f964a5203e1f21e3,Nazareth Hospital Cafeteria,Restaurant,40.058082580566406,-75.0436019897461
428,19152,5adccf518c35dc7eae9de327,Ritz Diner,Diner,40.057252373281216,-75.047001985102
429,19152,4b6cb09bf964a520724c2ce3,Tuscany Ristorante,Italian Restaurant,40.05704824111185,-75.04773279189685
430,19152,4c62bfd3ec94a5934cf829ca,Lipkin's Bakery,Bakery,40.062080588047905,-75.055465062238
431,19152,4c265839136d20a15c30e561,Ilona Kellers Dugans,American Restaurant,40.053118264074136,-75.0433141233895
432,19152,4ce71c7de1eeb60c81fd9aae,Bellissima Pizza,Pizza Place,40.058515,-75.059593
433,19152,4f321a4e19836c91c7b61cf1,Espresso Cafe & Sushi Bar,Japanese Restaurant,40.058515,-75.059593
434,19152,4c607c9dde6920a117149664,By Brazil,Brazilian Restaurant,40.057897,-75.060162
435,19152,5914eadec4df1d6ddcf12c73,Dinner Time,American Restaurant,40.075764,-75.049902
436,19152,4bf536cbe5eba59308782090,Dunkin',Donut Shop,40.05152258938532,-75.05708582944771
437,19152,5cca183735f983002cbbda05,Taco Bell,Mexican Restaurant,40.051273,-75.056854
438,19152,5bd8fca189e490002c17caf9,Taqueria Del Norte,Taco Place,40.057148,-75.030334
439,19152,4ca7701b76d3a093ab810b6b,American Legion Post 810,Restaurant,40.07656627534014,-75.03903871026328
440,19152,4f32363019836c91c7c126ab,Supreme Pizza,Pizza Place,40.05486318039375,-75.06301685486908
441,19152,4b533cbbf964a5208f9327e3,New England Pizza,Pizza Place,40.071973865274984,-75.03126415293407
442,19152,4dc8337a2271f270516ea577,Kum Lin,Asian Restaurant,40.07173435,-75.0310216
443,19152,4bec2efab3352d7f475957d2,McDonald's,Fast Food Restaurant,40.05443771596421,-75.06310241067645
444,19152,4b609130f964a5200bee29e3,Primo Hoagies,Sandwich Place,40.07186794679396,-75.03044933080679
445,19154,4ba94ae5f964a520231c3ae3,Philly Pretzel Factory,Snack Place,40.096406422515415,-74.97432858365318
446,19154,4bb1531ff964a5205e8c3ce3,Hong Kong Chinese Restaurant,Chinese Restaurant,40.095897032975344,-74.97512639901798
447,19154,4e4562e618a8f9804cb9bb87,Entenmanns Bakery Outlet,Bakery,40.09579713335327,-74.97516648875092
448,19154,4ba94a99f964a520fe1b3ae3,Reens Deli,Deli / Bodega,40.09559426695617,-74.9753281708042
449,19154,4cb716a386e09eb0b8ac62e2,Dunkin',Donut Shop,40.09646305736271,-74.97499982764242
450,19154,4bb669b0ef159c7489e975f7,Pat's Pizzeria,Pizza Place,40.09551654619791,-74.97547584582838
451,19154,4f32a28119836c91c7eae9ce,Pats Pizzeria,Pizza Place,40.096038818359375,-74.97608947753906
452,19154,5cc381c604d1ae002ca9de04,K-Pot,Korean Restaurant,40.092495,-74.96293
453,19154,4baa9a84f964a520c5783ae3,Arby's,Fast Food Restaurant,40.089864,-74.964175
454,19154,4b57b916f964a520d53d28e3,Mr. V's Steaks,Fast Food Restaurant,40.088525155584556,-74.96627946084836
455,19154,51d5c963498ec1553541c6ac,Dunkin',Donut Shop,40.089397062703625,-74.96435123356798
456,19154,4bdf05e7e75c0f4743a3c903,KFC,Fried Chicken Joint,40.0889336074344,-74.96467617852153
457,19154,4bbb9744e4529521d0e454a4,Burger King,Fast Food Restaurant,40.08793425982951,-74.96716529130936
458,19154,4ba657a0f964a520664839e3,McDonald's,Fast Food Restaurant,40.08842367029156,-74.96501818299299
459,19154,4e2392401838712abe893f55,All Star Pizza,Pizza Place,40.0893315,-74.9768423
460,19154,4ccf310206b54688cda0d394,Franklin Mills Food Court,Food Court,40.0903402749153,-74.96135878740277
461,19154,4b8ad251f964a5205d8332e3,Taco Bell,Fast Food Restaurant,40.08769758301752,-74.96527639160269
462,19154,4cb716a786e09eb0c2ac62e2,Dunkin',Donut Shop,40.086435,-74.9717959
463,19154,4b330b7ff964a520441725e3,Joe Santucci's Square Pizza Bar and Grill,Pizza Place,40.08595689983307,-74.97142811894847
464,19154,4c375ee8ae2da593d2bdfec5,SUBWAY,Sandwich Place,40.087589263916016,-74.96229553222656
465,19154,4cf43f918333224b62f0198e,Sbarro,Pizza Place,40.09406280517578,-74.95781707763672
466,19154,59e938e66fa81f72c87f9da6,Cinnabon,Sandwich Place,40.087414,-74.961853
467,19154,4d2630db0167a1cd403aa4bd,Coffee Beanery #445,Café,40.087418,-74.961819
468,19154,4bb75b2c941ad13abf8920e3,Auntie Anne's,Snack Place,40.08744094386104,-74.9617725745958
469,19154,4e845a422c5b313283d77e24,SUBWAY,Sandwich Place,40.08539962768555,-74.9670639038086
470,19154,4b9bcbabf964a520222636e3,Joe Santucci's Original Square Pizza,Pizza Place,40.084869384765625,-74.97023010253906
471,19154,4d9b92deee8e14565e051cb7,The Works,Deli / Bodega,40.08477218641181,-74.97058255608461
472,19154,4bf2c6e89319a593bb55cb51,Great Wraps,Sandwich Place,40.08709716796875,-74.9612045288086
473,19154,4d4b1ed6102b236a786e6143,Speedy's Pizza,Pizza Place,40.084558,-74.972796
474,19154,4b96f3b1f964a520f0ef34e3,Juliano's Deli,Deli / Bodega,40.084531,-74.972738
